[{"OBJECT_NAME":"RISAT-2BR1","OBJECT_ID":"2019-089F","EPOCH":"2026-03-09T22:23:56.080608","MEAN_MOTION":15.01632497,"ECCENTRICITY":0.00130957,"INCLINATION":36.9618,"RA_OF_ASC_NODE":340.419,"ARG_OF_PERICENTER":88.0635,"MEAN_ANOMALY":272.1607,"EPHEMERIS_TYPE":0,"CLASSIFICATION_TYPE":"U","NORAD_CAT_ID":44857,"ELEMENT_SET_NO":999,"REV_AT_EPOCH":34227,"BSTAR":0.00042406412,"MEAN_MOTION_DOT":5.543e-5,"MEAN_MOTION_DDOT":0},{"OBJECT_NAME":"STARLINK-4389","OBJECT_ID":"2022-099L","EPOCH":"2026-03-09T21:51:46.754784","MEAN_MOTION":15.01257351,"ECCENTRICITY":0.00021959,"INCLINATION":97.601,"RA_OF_ASC_NODE":190.4244,"ARG_OF_PERICENTER":219.9903,"MEAN_ANOMALY":140.116,"EPHEMERIS_TYPE":0,"CLASSIFICATION_TYPE":"U","NORAD_CAT_ID":53475,"ELEMENT_SET_NO":999,"REV_AT_EPOCH":19671,"BSTAR":4.4061171e-5,"MEAN_MOTION_DOT":5.08e-6,"MEAN_MOTION_DDOT":0}]
